#dP2020 12 20  0  0  0.00000000      96 __u+U ITR00 FIT  IAC
## 2137      0.00000000   900.00000000 59203 0.0000000000000
+  113   C01C02C04C05C06C07C08C09C10C11C12C13C14C16C19C20C21
+        C22C23C24C25C26C27C28C29C30C32C33C34C35C36C37C40E01
+        E02E03E04E05E07E08E09E11E12E13E14E15E18E19E21E24E25
+        E26E27E30E31E33E36G01G02G03G04G05G06G07G08G09G10G11
+        G12G13G14G15G16G17G18G19G20G21G22G23G24G25G26G27G28
+        G29G30G31G32J01J02J03J07R01R02R03R04R05R07R08R09R12
+        R13R14R15R16R17R18R19R20R21R22R24  0  0  0  0  0  0
++        13 13 13  0  8  9  9  8  8  8  8  8  8  8  8  8  8
++         8  8  8  8  8  8  8  8  8  8  9  8  8  8  9 12  5
++         5  5  5  5  5  5  5  5  5  5  5  4  5  6  4  5  5
++         5  4  5  5  5  5  4  4  4  4  4  4  4  3  4  4  4
++         4  3  4  4  4  4  4  4  4  4  4  4  4  4  4  4  4
++         4  4  4  4  9  8  9 14  6  6  6  6  5  6  6  6  5
++         6  6  6  6  6  6  7  6  6  7  6  0  0  0  0  0  0
%c M  cc GPS ccc cccc cccc cccc cccc ccccc ccccc ccccc ccccc
%c cc cc ccc ccc cccc cccc cccc cccc ccccc ccccc ccccc ccccc
%f  0.0000000  0.000000000  0.00000000000  0.000000000000000
%f  0.0000000  0.000000000  0.00000000000  0.000000000000000
%i    0    0    0    0      0      0      0      0         0
%i    0    0    0    0      0      0      0      0         0
/* INFORMATION & ANALYSIS CENTER (IAC)            RAPID DATA
/* S/V CLOCKS ARE ALIGNED TO GNSS TIME                      
/* G:C1WC2W R:C1PC2P E:C1XC5X C:C2IC6I J:C1CC2S             
/* PCV:IGS14_2134 OL/AL:FES2004  NONE     YN ORB:CoN CLK:CoN
*  2020 12 20  2 15  0.00000000
PC01 -34379.545506  24370.345972   -283.055064   -635.436694
PC02   4403.618889  41948.505369    958.164767    657.454221
PC04 -39597.383356  14425.180173   -517.241159   -230.350394
PC05      0.000000      0.000000      0.000000 999999.999999
PC06  -7192.961492  29527.406285  29830.870805     68.956248
PC07 -21060.983127  24446.662080 -27139.334886   -146.738880
PC08 -18507.647097  37658.591733    954.423317   -809.452153
PC09   5827.538757  37748.850648  18564.402279    860.722359
PC10  -4914.645467  26595.325619 -32180.649116   -119.492765
PC11 -15935.843459    363.440772 -22842.489926   -829.146249
PC12 -16606.738420 -18184.594893 -13108.894048    676.847164
PC13  -9226.179368  38797.289164  13338.103566     60.807495
PC14 -27086.715885   1289.034625   6716.894913   -280.131962
PC16  -4978.615626  30282.268386  29080.636238   -635.590629
PC19  22332.091361  -7595.945367 -14886.161022    660.231010
PC20  27523.577507   4353.015785   1270.173306   -911.321467
PC21 -16501.795322 -14276.174314 -17394.917604   -760.398983
PC22   4015.486249 -15484.678888 -22869.239024   -819.760417
PC23 -10066.422447  24148.799367  -9691.264624   -891.686763
PC24 -18654.703140   -138.534615  20736.406173   -730.926966
PC25 -19909.186948  18085.540882   7384.021172   -867.733811
PC26  -7047.238066 -16262.534854  21556.218446    947.829830
PC27  12880.299705  24372.130647   4383.132700    452.282429
PC28    214.553617  24749.279924 -12875.650580   -131.927974
PC29  12139.900232 -11128.860115  22526.240145    327.060123
PC30  18358.211749   9480.029203  18768.025555    419.764341
PC32  16556.472209  14183.379555  17426.048748   -881.131751
PC33 -22367.870222   7685.776981  14818.384417   -877.752667
PC34 -18324.893437  -8816.119527 -19103.556855   -782.428411
PC35   -812.159022 -24622.010921  13080.585681   -505.360834
PC36  20402.023179 -17436.643291  -7637.508935   -799.532198
PC37   6031.693781  16955.496178 -21304.822836   -863.326000
PC40 -13558.054826  21220.726114 -33826.837375 999999.999999
PE01 -19067.918890  18738.804256 -12689.412483  -1007.042139
PE02  18998.559394 -18775.193272  12782.701592    184.882720
PE03   8793.752411 -14714.926976 -24140.543719   -377.935155
PE04  11127.512135  21745.405181  16716.096496   -671.521338
PE05  23853.443382   1063.308415 -17501.166255   -319.859814
PE07 -24848.711635 -16077.160202    704.498155   -476.817881
PE08 -11577.951351 -21617.888226 -16590.770360   6074.546952
PE09  24977.058591  15849.532267   -852.421032   5826.995549
PE11  13315.937610  15191.906429  21638.112408   6611.271220
PE12   2449.064562  28818.944440   6331.869099   5448.702791
PE13 -13160.076750 -15508.402109 -21494.239690    408.693057
PE14 -15739.863503 -22787.475268   3030.065703  -1265.556401
PE15  -2569.685608 -28786.026342  -6391.684171    838.299496
PE18   4370.800595  24898.059753 -14824.958364  -1382.901064
PE19 -10933.717039  13076.207807  24196.078911    157.310523
PE21 -27519.250949   9458.271605   5398.649758   -638.220525
PE24  19826.656314   6200.243162 -21105.673430   -644.703211
PE25  27534.349489  -9356.926084  -5544.545993   -522.600466
PE26 -16122.828838   7513.315546 -23647.191145   2362.620750
PE27 -20228.013570  -5663.182431  20855.221947     68.715778
PE30   -262.305843 -17654.941527  23755.871233   3330.820711
PE31   1115.417570  17344.212876 -23948.855832   -476.647994
PE33  -9503.334788  25123.715851 -12425.430964   -464.208498
PE36  16004.431696  -6864.138062  23946.413250    465.535247
PG01  13907.412595 -19173.428608  11430.363356    793.323025
PG02 -14732.832947  -2304.923893 -21325.070244   -556.419555
PG03  19868.526405 -13058.849019 -11818.351825    -34.383489
PG04  10775.885303 -10798.169840 -21737.782637   -165.816707
PG05 -25673.855862   1819.867032  -7089.126041    -28.808194
PG06  -7768.873838 -17236.796627 -18574.544744     -4.213911
PG07   5337.011306 -25553.502485   3469.523111   -437.224714
PG08  16959.488511  -2658.903920  20355.259152     -3.536422
PG09   -850.509868 -19393.713532 -18182.019726   -303.397512
PG10   8780.969000  13114.842747  21496.734367    -19.998113
PG11  13013.881223 -11943.052585  19472.967124    -76.522034
PG12 -22659.335980  10164.727325  -9433.284020     24.549468
PG13 -19484.801679  -7962.367587  16133.238133     76.855404
PG14  -5631.382956 -14357.894755  21618.577669     68.235389
PG15 -16553.677284   5390.234553  19793.917638   -182.103867
PG16  25844.100295   1215.489697  -7221.307582   -252.860019
PG17 -14068.447901 -22056.747188   5064.326672    369.328245
PG18  -4505.942808  25611.037333   5251.814838    334.154497
PG19 -17696.106085 -19647.539074  -3214.894575    -63.037986
PG20  -4003.658836  17154.672709  19737.789975    525.535476
PG21  15927.382695 -11494.702915  18435.019697     79.205925
PG22  24055.870022 -10552.843764  -3093.204879   -712.474188
PG23  -3416.915615  15958.029228  20920.310395    111.309763
PG24 -14793.694242  15954.733126  14730.859236      4.889232
PG25 -11081.324265  15776.320362 -18393.751305     43.170263
PG26  19638.857933   7016.634782 -16634.783085     17.083675
PG27  21158.508767   9528.878053  13089.785139    -38.515329
PG28  -9047.434745 -13485.631657  21556.984665    640.903873
PG29  -1506.833431  18307.692088 -19203.734165   -259.438129
PG30  -2160.325572 -23136.078473  12711.076564   -355.210401
PG31   9747.595769  14825.542288 -19687.549056    -88.686440
PG32  15824.222030  21006.221935   4383.986133      9.204364
PJ01 -29573.797610  21260.548794  26273.090791   -335.124389
PJ02 -35834.437382  21760.557205   -194.149211      0.174823
PJ03 -18874.207086  25034.383544 -23602.503813     -4.592882
PJ07 -25397.492059  33650.985260     12.105241      0.079267
PR01  17111.805522  -4107.886819 -18467.373724     72.293866
PR02  -4224.024204 -12305.590200 -21895.426751    459.344521
PR03 -19970.193842 -11786.372449 -10530.076764     27.631974
PR04 -24186.667247  -4630.803890   6651.893019     66.397487
PR05 -14834.230159   5045.119067  20122.942645     63.210945
PR07  20369.890662  11693.189669  10037.998625    -41.876285
PR08  24212.865638   4651.564812  -6539.190027    -56.374080
PR09  -7153.859548  17789.508847 -16842.653500     14.007989
PR12  18618.021596 -17436.524057    889.487558    189.716134
PR13   7515.829788 -17767.402505  16674.808333    -48.189209
PR14  -8293.051196  -7402.919081  22969.564315     58.940014
PR15 -18875.347857   6918.188522  15716.458988    106.284502
PR16 -17849.195420  18042.614962  -1733.800037     -9.303159
PR17  -9690.937893 -20492.472875 -11723.611192    383.907095
PR18 -11259.815910  -5164.543419 -22268.368922     60.263985
PR19  -7458.105653  12013.765993 -21220.993474   -124.439705
PR20   1575.207693  24727.447296  -6131.573399   -429.241534
PR21   9894.151286  19737.641488  12755.641050   -174.386386
PR22  11105.656821   4098.523541  22600.669977    -87.904772
PR24  -2075.478146 -24851.458968   5430.367880     24.695223
EOF
